[
  {
    "OBJECT_NAME": "RESOURCESAT-2",
    "OBJECT_ID": "2011-015A",
    "EPOCH": "2025-04-16T22:16:02.173152",
    "MEAN_MOTION": 14.22579704,
    "ECCENTRICITY": 0.0009289,
    "INCLINATION": 98.8118,
    "RA_OF_ASC_NODE": 171.1253,
    "ARG_OF_PERICENTER": 16.5681,
    "MEAN_ANOMALY": 343.5799,
    "EPHEMERIS_TYPE": 0,
    "CLASSIFICATION_TYPE": "U",
    "NORAD_CAT_ID": 37387,
    "ELEMENT_SET_NO": 999,
    "REV_AT_EPOCH": 72561,
    "BSTAR": 0.00042746,
    "MEAN_MOTION_DOT": 9.11e-6,
    "MEAN_MOTION_DDOT": 0
  },
  {
    "OBJECT_NAME": "HAIYANG-2A",
    "OBJECT_ID": "2011-043A",
    "EPOCH": "2025-04-16T22:51:59.097312",
    "MEAN_MOTION": 13.78811314,
    "ECCENTRICITY": 0.0001193,
    "INCLINATION": 99.3342,
    "RA_OF_ASC_NODE": 111.5793,
    "ARG_OF_PERICENTER": 47.8578,
    "MEAN_ANOMALY": 312.2675,
    "EPHEMERIS_TYPE": 0,
    "CLASSIFICATION_TYPE": "U",
    "NORAD_CAT_ID": 37781,
    "ELEMENT_SET_NO": 999,
    "REV_AT_EPOCH": 68794,
    "BSTAR": 0.00010296,
    "MEAN_MOTION_DOT": 6.1e-7,
    "MEAN_MOTION_DDOT": 0
  },
  {
    "OBJECT_NAME": "RASAT",
    "OBJECT_ID": "2011-044D",
    "EPOCH": "2025-04-16T22:17:40.417728",
    "MEAN_MOTION": 14.67502093,
    "ECCENTRICITY": 0.0022157,
    "INCLINATION": 98.0652,
    "RA_OF_ASC_NODE": 199.7708,
    "ARG_OF_PERICENTER": 102.7231,
    "MEAN_ANOMALY": 347.4514,
    "EPHEMERIS_TYPE": 0,
    "CLASSIFICATION_TYPE": "U",
    "NORAD_CAT_ID": 37791,
    "ELEMENT_SET_NO": 999,
    "REV_AT_EPOCH": 73065,
    "BSTAR": 0.00039238,
    "MEAN_MOTION_DOT": 2.183e-5,
    "MEAN_MOTION_DDOT": 0
  },
  {
    "OBJECT_NAME": "SRMSAT",
    "OBJECT_ID": "2011-058D",
    "EPOCH": "2025-04-16T17:51:07.136640",
    "MEAN_MOTION": 14.11412238,
    "ECCENTRICITY": 0.00117,
    "INCLINATION": 19.9707,
    "RA_OF_ASC_NODE": 120.3269,
    "ARG_OF_PERICENTER": 191.7437,
    "MEAN_ANOMALY": 324.4047,
    "EPHEMERIS_TYPE": 0,
    "CLASSIFICATION_TYPE": "U",
    "NORAD_CAT_ID": 37841,
    "ELEMENT_SET_NO": 999,
    "REV_AT_EPOCH": 69749,
    "BSTAR": 0.00017818,
    "MEAN_MOTION_DOT": 5.92e-6,
    "MEAN_MOTION_DDOT": 0
  },
  {
    "OBJECT_NAME": "PLEIADES 1A",
    "OBJECT_ID": "2011-076F",
    "EPOCH": "2025-04-16T21:49:03.122688",
    "MEAN_MOTION": 14.58564157,
    "ECCENTRICITY": 0.0001478,
    "INCLINATION": 98.1998,
    "RA_OF_ASC_NODE": 183.0547,
    "ARG_OF_PERICENTER": 83.8961,
    "MEAN_ANOMALY": 4.0176,
    "EPHEMERIS_TYPE": 0,
    "CLASSIFICATION_TYPE": "U",
    "NORAD_CAT_ID": 38012,
    "ELEMENT_SET_NO": 999,
    "REV_AT_EPOCH": 70985,
    "BSTAR": 0.00032627,
    "MEAN_MOTION_DOT": 1.472e-5,
    "MEAN_MOTION_DDOT": 0
  },
  {
    "OBJECT_NAME": "ZIYUAN 1-02C (ZY 1-02C)",
    "OBJECT_ID": "2011-079A",
    "EPOCH": "2025-04-16T23:03:54.154080",
    "MEAN_MOTION": 14.37700369,
    "ECCENTRICITY": 0.0007444,
    "INCLINATION": 98.4563,
    "RA_OF_ASC_NODE": 177.0599,
    "ARG_OF_PERICENTER": 135.7646,
    "MEAN_ANOMALY": 343.5112,
    "EPHEMERIS_TYPE": 0,
    "CLASSIFICATION_TYPE": "U",
    "NORAD_CAT_ID": 38038,
    "ELEMENT_SET_NO": 999,
    "REV_AT_EPOCH": 69795,
    "BSTAR": 0.00058901,
    "MEAN_MOTION_DOT": 1.728e-5,
    "MEAN_MOTION_DDOT": 0
  },
  {
    "OBJECT_NAME": "ZIYUAN 3-1 (ZY 3-1)",
    "OBJECT_ID": "2012-001A",
    "EPOCH": "2025-04-16T22:42:34.903584",
    "MEAN_MOTION": 15.50470754,
    "ECCENTRICITY": 0.0005324,
    "INCLINATION": 97.1996,
    "RA_OF_ASC_NODE": 171.477,
    "ARG_OF_PERICENTER": 117.5691,
    "MEAN_ANOMALY": 242.6103,
    "EPHEMERIS_TYPE": 0,
    "CLASSIFICATION_TYPE": "U",
    "NORAD_CAT_ID": 38046,
    "ELEMENT_SET_NO": 999,
    "REV_AT_EPOCH": 73766,
    "BSTAR": 0.0010322,
    "MEAN_MOTION_DOT": 0.00059101,
    "MEAN_MOTION_DDOT": 0
  },
  {
    "OBJECT_NAME": "ARIRANG-3 (KOMPSAT-3)",
    "OBJECT_ID": "2012-025B",
    "EPOCH": "2025-04-16T21:21:11.857248",
    "MEAN_MOTION": 14.62414175,
    "ECCENTRICITY": 0.0007303,
    "INCLINATION": 98.3016,
    "RA_OF_ASC_NODE": 60.1482,
    "ARG_OF_PERICENTER": 11.3873,
    "MEAN_ANOMALY": 348.7491,
    "EPHEMERIS_TYPE": 0,
    "CLASSIFICATION_TYPE": "U",
    "NORAD_CAT_ID": 38338,
    "ELEMENT_SET_NO": 999,
    "REV_AT_EPOCH": 68906,
    "BSTAR": 0.0004125,
    "MEAN_MOTION_DOT": 2.039e-5,
    "MEAN_MOTION_DDOT": 0
  },
  {
    "OBJECT_NAME": "EXACTVIEW-1 (ADS-1B)",
    "OBJECT_ID": "2012-039C",
    "EPOCH": "2025-04-16T20:43:07.845600",
    "MEAN_MOTION": 14.24792243,
    "ECCENTRICITY": 0.0010179,
    "INCLINATION": 98.947,
    "RA_OF_ASC_NODE": 210.4608,
    "ARG_OF_PERICENTER": 324.5649,
    "MEAN_ANOMALY": 35.4852,
    "EPHEMERIS_TYPE": 0,
    "CLASSIFICATION_TYPE": "U",
    "NORAD_CAT_ID": 38709,
    "ELEMENT_SET_NO": 999,
    "REV_AT_EPOCH": 66199,
    "BSTAR": 0.00028103,
    "MEAN_MOTION_DOT": 6.09e-6,
    "MEAN_MOTION_DDOT": 0
  },
  {
    "OBJECT_NAME": "SPOT 6",
    "OBJECT_ID": "2012-047A",
    "EPOCH": "2025-04-16T21:48:38.485728",
    "MEAN_MOTION": 14.58562496,
    "ECCENTRICITY": 0.0001051,
    "INCLINATION": 98.1807,
    "RA_OF_ASC_NODE": 175.6975,
    "ARG_OF_PERICENTER": 91.1351,
    "MEAN_ANOMALY": 268.9969,
    "EPHEMERIS_TYPE": 0,
    "CLASSIFICATION_TYPE": "U",
    "NORAD_CAT_ID": 38755,
    "ELEMENT_SET_NO": 999,
    "REV_AT_EPOCH": 67091,
    "BSTAR": 0.00032534,
    "MEAN_MOTION_DOT": 1.467e-5,
    "MEAN_MOTION_DDOT": 0
  },
  {
    "OBJECT_NAME": "PLEIADES 1B",
    "OBJECT_ID": "2012-068A",
    "EPOCH": "2025-04-16T22:13:59.812608",
    "MEAN_MOTION": 14.58541345,
    "ECCENTRICITY": 0.0001342,
    "INCLINATION": 98.1971,
    "RA_OF_ASC_NODE": 183.0362,
    "ARG_OF_PERICENTER": 91.1628,
    "MEAN_ANOMALY": 268.9725,
    "EPHEMERIS_TYPE": 0,
    "CLASSIFICATION_TYPE": "U",
    "NORAD_CAT_ID": 39019,
    "ELEMENT_SET_NO": 999,
    "REV_AT_EPOCH": 65871,
    "BSTAR": 0.00032845,
    "MEAN_MOTION_DOT": 1.481e-5,
    "MEAN_MOTION_DDOT": 0
  },
  {
    "OBJECT_NAME": "GOKTURK 2",
    "OBJECT_ID": "2012-073A",
    "EPOCH": "2025-04-16T20:32:31.880256",
    "MEAN_MOTION": 14.74924251,
    "ECCENTRICITY": 8.78e-5,
    "INCLINATION": 97.7168,
    "RA_OF_ASC_NODE": 320.0154,
    "ARG_OF_PERICENTER": 77.828,
    "MEAN_ANOMALY": 282.3028,
    "EPHEMERIS_TYPE": 0,
    "CLASSIFICATION_TYPE": "U",
    "NORAD_CAT_ID": 39030,
    "ELEMENT_SET_NO": 999,
    "REV_AT_EPOCH": 66165,
    "BSTAR": 0.00028033,
    "MEAN_MOTION_DOT": 1.835e-5,
    "MEAN_MOTION_DDOT": 0
  },
  {
    "OBJECT_NAME": "LANDSAT 8",
    "OBJECT_ID": "2013-008A",
    "EPOCH": "2025-04-16T22:19:58.428768",
    "MEAN_MOTION": 14.57132084,
    "ECCENTRICITY": 0.0001104,
    "INCLINATION": 98.1893,
    "RA_OF_ASC_NODE": 178.2655,
    "ARG_OF_PERICENTER": 96.1507,
    "MEAN_ANOMALY": 263.9817,
    "EPHEMERIS_TYPE": 0,
    "CLASSIFICATION_TYPE": "U",
    "NORAD_CAT_ID": 39084,
    "ELEMENT_SET_NO": 999,
    "REV_AT_EPOCH": 63582,
    "BSTAR": 0.00033474,
    "MEAN_MOTION_DOT": 1.464e-5,
    "MEAN_MOTION_DDOT": 0
  },
  {
    "OBJECT_NAME": "SARAL",
    "OBJECT_ID": "2013-009A",
    "EPOCH": "2025-04-16T21:42:36.890496",
    "MEAN_MOTION": 14.32684815,
    "ECCENTRICITY": 0.0003141,
    "INCLINATION": 98.5542,
    "RA_OF_ASC_NODE": 293.9506,
    "ARG_OF_PERICENTER": 102.6137,
    "MEAN_ANOMALY": 257.5398,
    "EPHEMERIS_TYPE": 0,
    "CLASSIFICATION_TYPE": "U",
    "NORAD_CAT_ID": 39086,
    "ELEMENT_SET_NO": 999,
    "REV_AT_EPOCH": 63456,
    "BSTAR": 0.00019468,
    "MEAN_MOTION_DOT": 4.86e-6,
    "MEAN_MOTION_DDOT": 0
  }
]
