RESOURCESAT-2           
1 37387U 11015A   25106.92780293  .00000911  00000+0  42746-3 0  9996
2 37387  98.8118 171.1253 0009289  16.5681 343.5799 14.22579704725612
HAIYANG-2A              
1 37781U 11043A   25106.95276733  .00000061  00000+0  10296-3 0  9998
2 37781  99.3342 111.5793 0001193  47.8578 312.2675 13.78811314687945
RASAT                   
1 37791U 11044D   25106.92894002  .00002183  00000+0  39238-3 0  9996
2 37791  98.0652 199.7708 0022157 102.7231 347.4514 14.67502093730659
SRMSAT                  
1 37841U 11058D   25106.74383260  .00000592  00000+0  17818-3 0  9998
2 37841  19.9707 120.3269 0011700 191.7437 324.4047 14.11412238697498
PLEIADES 1A             
1 38012U 11076F   25106.90906392  .00001472  00000+0  32627-3 0  9997
2 38012  98.1998 183.0547 0001478  83.8961   4.0176 14.58564157709856
ZIYUAN 1-02C (ZY 1-02C) 
1 38038U 11079A   25106.96104345  .00001728  00000+0  58901-3 0  9999
2 38038  98.4563 177.0599 0007444 135.7646 343.5112 14.37700369697953
ZIYUAN 3-1 (ZY 3-1)     
1 38046U 12001A   25106.94623731  .00059101  00000+0  10322-2 0  9999
2 38046  97.1996 171.4770 0005324 117.5691 242.6103 15.50470754737660
ARIRANG-3 (KOMPSAT-3)   
1 38338U 12025B   25106.88972057  .00002039  00000+0  41250-3 0  9993
2 38338  98.3016  60.1482 0007303  11.3873 348.7491 14.62414175689061
EXACTVIEW-1 (ADS-1B)    
1 38709U 12039C   25106.86328525  .00000609  00000+0  28103-3 0  9996
2 38709  98.9470 210.4608 0010179 324.5649  35.4852 14.24792243661994
SPOT 6                  
1 38755U 12047A   25106.90877877  .00001467  00000+0  32534-3 0  9996
2 38755  98.1807 175.6975 0001051  91.1351 268.9969 14.58562496670912
PLEIADES 1B             
1 39019U 12068A   25106.92638672  .00001481  00000+0  32845-3 0  9994
2 39019  98.1971 183.0362 0001342  91.1628 268.9725 14.58541345658715
GOKTURK 2               
1 39030U 12073A   25106.85592454  .00001835  00000+0  28033-3 0  9999
2 39030  97.7168 320.0154 0000878  77.8280 282.3028 14.74924251661653
LANDSAT 8               
1 39084U 13008A   25106.93053737  .00001464  00000+0  33474-3 0  9995
2 39084  98.1893 178.2655 0001104  96.1507 263.9817 14.57132084635827
SARAL                   
1 39086U 13009A   25106.90459364  .00000486  00000+0  19468-3 0  9991
2 39086  98.5542 293.9506 0003141 102.6137 257.5398 14.32684815634569
